STARLINK-36869
1 67954U 26037Y   26092.83335647 -.01860492  00000+0 -49188-1 0  9999
2 67954  43.0010  54.9334 0001095 277.0367 198.7319 15.40946328  5911
